[{"OBJECT_NAME":"HULIANWANG DIGUI-124","OBJECT_ID":"2025-295F","EPOCH":"2026-03-09T18:55:48.196992","MEAN_MOTION":13.43834022,"ECCENTRICITY":9.382e-5,"INCLINATION":50.0006,"RA_OF_ASC_NODE":22.392,"ARG_OF_PERICENTER":27.9448,"MEAN_ANOMALY":332.1481,"EPHEMERIS_TYPE":0,"CLASSIFICATION_TYPE":"U","NORAD_CAT_ID":67064,"ELEMENT_SET_NO":999,"REV_AT_EPOCH":1227,"BSTAR":0.00011694892,"MEAN_MOTION_DOT":-6.1e-7,"MEAN_MOTION_DDOT":0},{"OBJECT_NAME":"FENGYUN 1C DEB","OBJECT_ID":"1999-025AUV","EPOCH":"2026-03-08T13:26:52.940544","MEAN_MOTION":13.62145247,"ECCENTRICITY":0.0280458,"INCLINATION":98.7731,"RA_OF_ASC_NODE":103.4745,"ARG_OF_PERICENTER":181.5869,"MEAN_ANOMALY":178.4413,"EPHEMERIS_TYPE":0,"CLASSIFICATION_TYPE":"U","NORAD_CAT_ID":30811,"ELEMENT_SET_NO":999,"REV_AT_EPOCH":94035,"BSTAR":0.0018868164,"MEAN_MOTION_DOT":1.859e-5,"MEAN_MOTION_DDOT":0}]
